NORAD_CAT_ID,OBJECT_NAME,OBJECT_TYPE,EPOCH,MEAN_MOTION,ECCENTRICITY,INCLINATION,RA_OF_ASC_NODE,ARG_OF_PERICENTER,MEAN_ANOMALY,BSTAR,MEAN_MOTION_DOT,MEAN_MOTION_DDOT,TLE_LINE0,TLE_LINE1,TLE_LINE2,SEMIMAJOR_AXIS,PERIOD,APOGEE,PERIGEE,DECAYED
56474.0,STARLINK-5524,PAYLOAD,2024-04-22 06:06:45,14.98333478,0.0002805,70.0026,55.3806,254.0771,106.0079,-3.97e-05,-5.67e-06,0.0,0 STARLINK-5524,1 56474U 23064AC  24113.25469618 -.00000567  00000-0 -39700-4 0  9996,2 56474  70.0026  55.3806 0002805 254.0771 106.0079 14.98333478 52911,6950.182,96.107,573.997,570.098,0.0
56474.0,STARLINK-5524,PAYLOAD,2024-04-22 20:31:59,14.98320202,0.0002494,70.0031,53.865,259.5276,100.5602,0.00045266,5.311e-05,0.0,0 STARLINK-5524,1 56474U 23064AC  24113.85554564  .00005311  00000-0  45266-3 0  9990,2 56474  70.0031  53.8650 0002494 259.5276 100.5602 14.98320202 53363,6950.223,96.108,573.822,570.355,0.0
56474.0,STARLINK-5524,PAYLOAD,2024-04-22 22:08:07,14.98320988,0.0002731,70.0028,53.698,257.4417,102.6437,0.00039881,4.668e-05,0.0,0 STARLINK-5524,1 56474U 23064AC  24113.92230514  .00004668  00000-0  39881-3 0  9994,2 56474  70.0028  53.6980 0002731 257.4417 102.6437 14.98320988 53013,6950.221,96.108,573.984,570.188,0.0
56474.0,STARLINK-5524,PAYLOAD,2024-04-23 06:08:47,14.98326717,0.0002619,70.0032,52.8571,251.9339,108.1535,0.00036134,4.221e-05,0.0,0 STARLINK-5524,1 56474U 23064AC  24114.25610365  .00004221  00000-0  36134-3 0  9990,2 56474  70.0032  52.8571 0002619 251.9339 108.1535 14.98326717 53063,6950.203,96.107,573.888,570.248,0.0
56474.0,STARLINK-5524,PAYLOAD,2024-04-23 20:33:57,14.98383413,0.0002552,70.0047,51.3423,256.5388,103.5487,-0.0018487,-0.00022112,0.0,0 STARLINK-5524,1 56474U 23064AC  24114.85691304 -.00022112  00000-0 -18487-2 0  9999,2 56474  70.0047  51.3423 0002552 256.5388 103.5487 14.98383413 53511,6950.028,96.104,573.666,570.119,0.0
56474.0,STARLINK-5524,PAYLOAD,2024-04-23 22:10:05,14.9838427,0.0002606,70.0044,51.1736,254.0462,106.041,-0.0018894,-0.00022595,0.0,0 STARLINK-5524,1 56474U 23064AC  24114.92367071 -.00022595  00000-0 -18894-2 0  9995,2 56474  70.0044  51.1736 0002606 254.0462 106.0410 14.98384270 53166,6950.025,96.104,573.701,570.079,0.0
56474.0,STARLINK-5524,PAYLOAD,2024-04-24 02:58:30,14.9836262,0.0002568,70.0037,50.669,244.2484,115.8411,-0.00063962,-7.723e-05,0.0,0 STARLINK-5524,1 56474U 23064AC  24115.12395837 -.00007723  00000-0 -63962-3 0  9992,2 56474  70.0037  50.6690 0002568 244.2484 115.8411 14.98362620 53550,6950.092,96.105,573.742,570.172,0.0
56474.0,STARLINK-5524,PAYLOAD,2024-04-24 06:10:44,14.98399633,0.0002426,70.0042,50.3314,278.6176,81.4708,-0.00065443,-7.906e-05,0.0,0 STARLINK-5524,1 56474U 23064AC  24115.25745755 -.00007906  00000-0 -65443-3 0  9993,2 56474  70.0042  50.3314 0002426 278.6176  81.4708 14.98399633 53571,6949.978,96.103,573.529,570.157,0.0
56474.0,STARLINK-5524,PAYLOAD,2024-04-24 20:36:00,14.98325525,0.0003124,70.0039,48.8178,265.6158,94.4644,1.2788e-05,6e-07,0.0,0 STARLINK-5524,1 56474U 23064AC  24115.85833750  .00000060  00000-0  12788-4 0  9999,2 56474  70.0039  48.8178 0003124 265.6158  94.4644 14.98325525 53661,6950.207,96.107,574.243,569.9,0.0
56474.0,STARLINK-5524,PAYLOAD,2024-04-24 22:12:08,14.98322805,0.0003547,70.003,48.6497,269.7911,90.2842,-5.1661e-05,-7.09e-06,0.0,0 STARLINK-5524,1 56474U 23064AC  24115.92509863 -.00000709  00000-0 -51661-4 0  9997,2 56474  70.0030  48.6497 0003547 269.7911  90.2842 14.98322805 53319,6950.215,96.107,574.545,569.615,0.0
56474.0,STARLINK-5524,PAYLOAD,2024-04-25 04:36:40,14.9832238,0.0002846,70.0036,47.9759,245.7788,114.3074,-0.00010011,-1.287e-05,0.0,0 STARLINK-5524,1 56474U 23064AC  24116.19213905 -.00001287  00000-0 -10011-3 0  9991,2 56474  70.0036  47.9759 0002846 245.7788 114.3074 14.98322380 53352,6950.216,96.107,574.059,570.103,0.0
56474.0,STARLINK-5524,PAYLOAD,2024-04-25 20:38:01,14.98329206,0.0003081,70.0026,46.2911,260.5692,99.5119,-3.4514e-05,-5.05e-06,0.0,0 STARLINK-5524,1 56474U 23064AC  24116.85973718 -.00000505  00000-0 -34514-4 0  9996,2 56474  70.0026  46.2911 0003081 260.5692  99.5119 14.98329206 53813,6950.195,96.107,574.202,569.919,0.0
56474.0,STARLINK-5524,PAYLOAD,2024-04-25 22:14:09,14.98330589,0.0003005,70.0028,46.1226,259.9689,100.1131,-9.2906e-06,-2.04e-06,0.0,0 STARLINK-5524,1 56474U 23064AC  24116.92649667 -.00000204  00000-0 -92906-5 0  9993,2 56474  70.0028  46.1226 0003005 259.9689 100.1131 14.98330589 53467,6950.191,96.107,574.145,569.968,0.0
56474.0,STARLINK-5524,PAYLOAD,2024-04-26 12:39:21,14.98334595,0.000246,70.0041,44.6063,280.0389,80.0493,0.00015954,1.811e-05,0.0,0 STARLINK-5524,1 56474U 23064AC  24117.52733412  .00001811  00000-0  15954-3 0  9991,2 56474  70.0041  44.6063 0002460 280.0389  80.0493 14.98334595 53558,6950.179,96.107,573.753,570.334,0.0
56474.0,STARLINK-5524,PAYLOAD,2024-04-26 22:16:10,14.98329403,0.0002596,70.0027,43.5952,261.7029,98.3836,0.00038321,4.482e-05,0.0,0 STARLINK-5524,1 56474U 23064AC  24117.92789770  .00004482  00000-0  38321-3 0  9993,2 56474  70.0027  43.5952 0002596 261.7029  98.3836 14.98329403 53616,6950.195,96.107,573.864,570.255,0.0
56474.0,STARLINK-5524,PAYLOAD,2024-04-27 04:40:42,14.98341526,0.000272,70.0019,42.9207,265.0665,95.0184,0.00052148,6.136e-05,0.0,0 STARLINK-5524,1 56474U 23064AC  24118.19493154  .00006136  00000-0  52148-3 0  9992,2 56474  70.0019  42.9207 0002720 265.0665  95.0184 14.98341526 54010,6950.157,96.106,573.913,570.132,0.0
56474.0,STARLINK-5524,PAYLOAD,2024-04-27 12:41:22,14.98335909,0.0002511,70.0034,42.0827,275.6026,84.4846,0.0002079,2.389e-05,0.0,0 STARLINK-5524,1 56474U 23064AC  24118.52873440  .00002389  00000-0  20790-3 0  9993,2 56474  70.0034  42.0827 0002511 275.6026  84.4846 14.98335909 54062,6950.175,96.107,573.785,570.294,0.0
56474.0,STARLINK-5524,PAYLOAD,2024-04-27 22:18:11,14.98329683,0.0002677,70.0016,41.0701,267.1395,92.9457,-6.9843e-05,-9.26e-06,0.0,0 STARLINK-5524,1 56474U 23064AC  24118.92929660 -.00000926  00000-0 -69843-4 0  9993,2 56474  70.0016  41.0701 0002677 267.1395  92.9457 14.98329683 53760,6950.194,96.107,573.919,570.198,0.0
56474.0,STARLINK-5524,PAYLOAD,2024-04-28 04:42:43,14.98327485,0.0002962,70.0018,40.3997,270.2588,89.8232,-9.6107e-05,-1.239e-05,0.0,0 STARLINK-5524,1 56474U 23064AC  24119.19633824 -.00001239  00000-0 -96107-4 0  9998,2 56474  70.0018  40.3997 0002962 270.2588  89.8232 14.98327485 54166,6950.201,96.107,574.124,570.007,0.0
56474.0,STARLINK-5524,PAYLOAD,2024-04-28 22:20:12,14.9832969,0.0003056,70.0004,38.5461,274.2985,85.7825,0.0001174,1.308e-05,0.0,0 STARLINK-5524,1 56474U 23064AC  24119.93069821  .00001308  00000-0  11740-3 0  9994,2 56474  70.0004  38.5461 0003056 274.2985  85.7825 14.98329690 53911,6950.194,96.107,574.183,569.935,0.0
56474.0,STARLINK-5524,PAYLOAD,2024-04-29 04:44:43,14.98340018,0.0002926,70.0007,37.8743,272.4581,87.6243,9.9483e-05,1.095e-05,0.0,0 STARLINK-5524,1 56474U 23064AC  24120.19773107  .00001095  00000-0  99483-4 0  9997,2 56474  70.0007  37.8743 0002926 272.4581  87.6243 14.98340018 54313,6950.162,96.106,574.061,569.993,0.0
56474.0,STARLINK-5524,PAYLOAD,2024-04-29 11:09:16,14.98337979,0.0002847,70.0009,37.2004,273.2652,86.8182,4.5259e-05,4.47e-06,0.0,0 STARLINK-5524,1 56474U 23064AC  24120.46477236  .00000447  00000-0  45259-4 0  9993,2 56474  70.0009  37.2004 0002847 273.2652  86.8182 14.98337979 53997,6950.168,96.106,574.012,570.055,0.0
56474.0,STARLINK-5524,PAYLOAD,2024-04-29 20:46:05,14.98327208,0.0002883,70.001,36.1905,275.9543,84.1288,0.00027285,3.164e-05,0.0,0 STARLINK-5524,1 56474U 23064AC  24120.86533745  .00003164  00000-0  27285-3 0  9992,2 56474  70.0010  36.1905 0002883 275.9543  84.1288 14.98327208 54415,6950.202,96.107,574.07,570.063,0.0
56474.0,STARLINK-5524,PAYLOAD,2024-04-29 22:22:13,14.98331185,0.0002898,70.0021,36.0222,276.2877,83.7951,0.00025378,2.936e-05,0.0,0 STARLINK-5524,1 56474U 23064AC  24120.93209599  .00002936  00000-0  25378-3 0  9994,2 56474  70.0021  36.0222 0002898 276.2877  83.7951 14.98331185 54060,6950.189,96.107,574.068,570.04,0.0
56474.0,STARLINK-5524,PAYLOAD,2024-04-30 11:11:17,14.9833378,0.0002812,70.0023,34.6752,272.3559,87.7278,0.00018645,2.133e-05,0.0,0 STARLINK-5524,1 56474U 23064AC  24121.46617438  .00002133  00000-0  18645-3 0  9996,2 56474  70.0023  34.6752 0002812 272.3559  87.7278 14.98333780 54142,6950.181,96.107,574.001,570.092,0.0
56474.0,STARLINK-5524,PAYLOAD,2024-04-30 20:48:05,14.98332957,0.0002724,70.0025,33.6656,269.0378,91.0469,6.338e-05,6.63e-06,0.0,0 STARLINK-5524,1 56474U 23064AC  24121.86673382  .00000663  00000-0  63380-4 0  9993,2 56474  70.0025  33.6656 0002724 269.0378  91.0469 14.98332957 54561,6950.184,96.107,573.942,570.156,0.0
56474.0,STARLINK-5524,PAYLOAD,2024-04-30 22:24:14,14.9833151,0.0002772,70.0013,33.4974,268.4157,91.6685,0.000119,1.327e-05,0.0,0 STARLINK-5524,1 56474U 23064AC  24121.93349759  .00001327  00000-0  11900-3 0  9997,2 56474  70.0013  33.4974 0002772 268.4157  91.6685 14.98331510 54212,6950.188,96.107,573.98,570.127,0.0
56474.0,STARLINK-5524,PAYLOAD,2024-05-01 11:13:18,14.98332789,0.0002652,70.0013,32.1512,263.0609,97.0249,0.00021942,2.526e-05,0.0,0 STARLINK-5524,1 56474U 23064AC  24122.46757269  .00002526  00000-0  21942-3 0  9994,2 56474  70.0013  32.1512 0002652 263.0609  97.0249 14.98332789 54299,6950.184,96.107,573.892,570.206,0.0
56474.0,STARLINK-5524,PAYLOAD,2024-05-02 03:14:38,14.98342141,0.0002773,70.0011,30.468,267.6698,92.4143,0.00016371,1.862e-05,0.0,0 STARLINK-5524,1 56474U 23064AC  24123.13516328  .00001862  00000-0  16371-3 0  9990,2 56474  70.0011  30.4680 0002773 267.6698  92.4143 14.98342141 54752,6950.155,96.106,573.948,570.093,0.0
56474.0,STARLINK-5524,PAYLOAD,2024-05-02 11:15:18,14.98342793,0.0003254,70.0001,29.6243,274.2872,85.7915,-3.6992e-05,-5.35e-06,0.0,0 STARLINK-5524,1 56474U 23064AC  24123.46896249 -.00000535  00000-0 -36992-4 0  9999,2 56474  70.0001  29.6243 0003254 274.2872  85.7915 14.98342793 54440,6950.153,96.106,574.28,569.757,0.0
